$$SOE
2459580.500000000, A.D. 2022-Jan-01 00:00:00.0000, 3.373720591191671E+08, 2.011029313971346E+08, 1.052268888196853E+08,
2459587.500000000, A.D. 2022-Jan-08 00:00:00.0000, 3.297920559612033E+08, 2.084119345160487E+08, 1.040611071103397E+08,
2459594.500000000, A.D. 2022-Jan-15 00:00:00.0000, 3.219688549150931E+08, 2.155671322039789E+08, 1.028185615297983E+08,
2459601.500000000, A.D. 2022-Jan-22 00:00:00.0000, 3.139030656098210E+08, 2.225597902392372E+08, 1.014985198372958E+08,
2459608.500000000, A.D. 2022-Jan-29 00:00:00.0000, 3.055955219476622E+08, 2.293809205914022E+08, 1.001002801950860E+08,
2459615.500000000, A.D. 2022-Feb-05 00:00:00.0000, 2.970472994249888E+08, 2.360212753114305E+08, 9.862317567710966E+07,
2459622.500000000, A.D. 2022-Feb-12 00:00:00.0000, 2.882597360740166E+08, 2.424713399512087E+08, 9.706657891805127E+07,
2459629.500000000, A.D. 2022-Feb-19 00:00:00.0000, 2.792344557752767E+08, 2.487213290120021E+08, 9.542990724881119E+07,
2459636.500000000, A.D. 2022-Feb-26 00:00:00.0000, 2.699733927011322E+08, 2.547611828493012E+08, 9.371262841245486E+07,
2459643.500000000, A.D. 2022-Mar-05 00:00:00.0000, 2.604788171187774E+08, 2.605805655880584E+08, 9.191426683018498E+07,
2459650.500000000, A.D. 2022-Mar-12 00:00:00.0000, 2.507533628381794E+08, 2.661688641749499E+08, 9.003441042688037E+07,
2459657.500000000, A.D. 2022-Mar-19 00:00:00.0000, 2.408000564312354E+08, 2.715151888114567E+08, 8.807271804741213E+07,
2459664.500000000, A.D. 2022-Mar-26 00:00:00.0000, 2.306223482883056E+08, 2.766083750029708E+08, 8.602892749633434E+07,
2459671.500000000, A.D. 2022-Apr-02 00:00:00.0000, 2.202241456087304E+08, 2.814369874365860E+08, 8.390286422441767E+07,
2459678.500000000, A.D. 2022-Apr-09 00:00:00.0000, 2.096098476075594E+08, 2.859893259904081E+08, 8.169445067027028E+07,
2459685.500000000, A.D. 2022-Apr-16 00:00:00.0000, 1.987843832838345E+08, 2.902534348569255E+08, 7.940371630802776E+07,
2459692.500000000, A.D. 2022-Apr-23 00:00:00.0000, 1.877532504405789E+08, 2.942171162200127E+08, 7.703080863035269E+07,
2459699.500000000, A.D. 2022-Apr-30 00:00:00.0000, 1.765225540025606E+08, 2.978679466255665E+08, 7.457600507198988E+07,
2459706.500000000, A.D. 2022-May-07 00:00:00.0000, 1.650990465714537E+08, 3.011932944987367E+08, 7.203972544623891E+07,
2459713.500000000, A.D. 2022-May-14 00:00:00.0000, 1.534901724421628E+08, 3.041803422994025E+08, 6.942254501941639E+07,
2459720.500000000, A.D. 2022-May-21 00:00:00.0000, 1.417041128189202E+08, 3.068161145490646E+08, 6.672520846043757E+07,
2459727.500000000, A.D. 2022-May-28 00:00:00.0000, 1.297498314509864E+08, 3.090875112702665E+08, 6.394864460586852E+07,
2459734.500000000, A.D. 2022-Jun-04 00:00:00.0000, 1.176371205861348E+08, 3.109813470445430E+08, 6.109398194698346E+07,
2459741.500000000, A.D. 2022-Jun-11 00:00:00.0000, 1.053766469188976E+08, 3.124843962192684E+08, 5.816256476179038E+07,
2459748.500000000, A.D. 2022-Jun-18 00:00:00.0000, 9.297999700463058E+07, 3.135834448033713E+08, 5.515596980031714E+07,
2459755.500000000, A.D. 2022-Jun-25 00:00:00.0000, 8.045972149074005E+07, 3.142653495303088E+08, 5.207602339929450E+07,
2459762.500000000, A.D. 2022-Jul-02 00:00:00.0000, 6.782937750080010E+07, 3.145171045022095E+08, 4.892481885693856E+07,
2459769.500000000, A.D. 2022-Jul-09 00:00:00.0000, 5.510356863507922E+07, 3.143259160205462E+08, 4.570473385799138E+07,
2459776.500000000, A.D. 2022-Jul-16 00:00:00.0000, 4.229798147370219E+07, 3.136792870415159E+08, 4.241844781363894E+07,
2459783.500000000, A.D. 2022-Jul-23 00:00:00.0000, 2.942941519589210E+07, 3.125651115803230E+08, 3.906895904907502E+07,
2459790.500000000, A.D. 2022-Jul-30 00:00:00.0000, 1.651580307204708E+07, 3.109717758058954E+08, 3.565960123195514E+07,
2459797.500000000, A.D. 2022-Aug-06 00:00:00.0000, 3.576227970704073E+06, 3.088882664110141E+08, 3.219405839444315E+07,
2459804.500000000, A.D. 2022-Aug-13 00:00:00.0000, -9.369070490762096E+06, 3.063042887382560E+08, 2.867637842748505E+07,
2459811.500000000, A.D. 2022-Aug-20 00:00:00.0000, -2.229870035484892E+07, 3.032103936059706E+08, 2.511098467575376E+07,
2459818.500000000, A.D. 2022-Aug-27 00:00:00.0000, -3.519013492184081E+07, 2.995981112535037E+08, 2.150268505274588E+07,
2459825.500000000, A.D. 2022-Sep-03 00:00:00.0000, -4.801974500293613E+07, 2.954600911181801E+08, 1.785667810036853E+07,
2459832.500000000, A.D. 2022-Sep-10 00:00:00.0000, -6.076284740195484E+07, 2.907902459448805E+08, 1.417855542367734E+07,
2459839.500000000, A.D. 2022-Sep-17 00:00:00.0000, -7.339377112995242E+07, 2.855838983279917E+08, 1.047429992524073E+07,
2459846.500000000, A.D. 2022-Sep-24 00:00:00.0000, -8.588594261635953E+07, 2.798379273353098E+08, 6.750279262230754E+06,
2459853.500000000, A.D. 2022-Oct-01 00:00:00.0000, -9.821199071013415E+07, 2.735509124884222E+08, 3.013233964386016E+06,
2459860.500000000, A.D. 2022-Oct-08 00:00:00.0000, -1.103438717192330E+08, 2.667232725430392E+08, -7.297402616703808E+05,
2459867.500000000, A.D. 2022-Oct-15 00:00:00.0000, -1.222530156054273E+08, 2.593573968738956E+08, -4.471216250057667E+06,
2459874.500000000, A.D. 2022-Oct-22 00:00:00.0000, -1.339104951287627E+08, 2.514577641495212E+08, -8.203465327161387E+06,
2459881.500000000, A.D. 2022-Oct-29 00:00:00.0000, -1.452872143977513E+08, 2.430310419119609E+08, -1.191849406114529E+07,
2459888.500000000, A.D. 2022-Nov-05 00:00:00.0000, -1.563541129944592E+08, 2.340861659972047E+08, -1.560808772117220E+07,
2459895.500000000, A.D. 2022-Nov-12 00:00:00.0000, -1.670823851704772E+08, 2.246343974292229E+08, -1.926385990980367E+07,
2459902.500000000, A.D. 2022-Nov-19 00:00:00.0000, -1.774437116082599E+08, 2.146893525009056E+08, -2.287730791063003E+07,
2459909.500000000, A.D. 2022-Nov-26 00:00:00.0000, -1.874104995648660E+08, 2.042670027881669E+08, -2.643987311095579E+07,
2459916.500000000, A.D. 2022-Dec-03 00:00:00.0000, -1.969561267025210E+08, 1.933856428917192E+08, -2.994300559800350E+07,
2459923.500000000, A.D. 2022-Dec-10 00:00:00.0000, -2.060551835483488E+08, 1.820658245527022E+08, -3.337823180933277E+07,
2459930.500000000, A.D. 2022-Dec-17 00:00:00.0000, -2.146837092333067E+08, 1.703302566952568E+08, -3.673722394496472E+07,
2459937.500000000, A.D. 2022-Dec-24 00:00:00.0000, -2.228194149658788E+08, 1.582036719480603E+08, -4.001186972685575E+07,
2459944.500000000, A.D. 2022-Dec-31 00:00:00.0000, -2.304418895632726E+08, 1.457126614481618E+08, -4.319434101959080E+07,
2459951.500000000, A.D. 2023-Jan-07 00:00:00.0000, -2.375327819472585E+08, 1.328854816432006E+08, -4.627715971494904E+07,
2459958.500000000, A.D. 2023-Jan-14 00:00:00.0000, -2.440759581811341E+08, 1.197518373220721E+08, -4.925325917626128E+07,
2459965.500000000, A.D. 2023-Jan-21 00:00:00.0000, -2.500576300832208E+08, 1.063426422853127E+08, -5.211604007382375E+07,
2459972.500000000, A.D. 2023-Jan-28 00:00:00.0000, -2.554664490614871E+08, 9.268976270449008E+07, -5.485941975971323E+07,
2459979.500000000, A.D. 2023-Feb-04 00:00:00.0000, -2.602935637304794E+08, 7.882575185990518E+07, -5.747787392245743E+07,
2459986.500000000, A.D. 2023-Feb-11 00:00:00.0000, -2.645326425817542E+08, 6.478358191386666E+07, -5.996646964664172E+07,
2459993.500000000, A.D. 2023-Feb-18 00:00:00.0000, -2.681798623412152E+08, 5.059637770423356E+07, -6.232088949926616E+07,
2460000.500000000, A.D. 2023-Feb-25 00:00:00.0000, -2.712338633346079E+08, 3.629715790994830E+07, -6.453744652308767E+07,
2460007.500000000, A.D. 2023-Mar-04 00:00:00.0000, -2.736956742481714E+08, 2.191858861435848E+07, -6.661309026389422E+07,
2460014.500000000, A.D. 2023-Mar-11 00:00:00.0000, -2.755686094956869E+08, 7.492753602789938E+06, -6.854540420877902E+07,
2460021.500000000, A.D. 2023-Mar-18 00:00:00.0000, -2.768581429505755E+08, -6.949055110391296E+06, -7.033259523890202E+07,
2460028.500000000, A.D. 2023-Mar-25 00:00:00.0000, -2.775717620151369E+08, -2.137652389017387E+07, -7.197347589275634E+07,
2460035.500000000, A.D. 2023-Apr-01 00:00:00.0000, -2.777188059535158E+08, -3.576047903269134E+07, -7.346744035306023E+07,
2460042.500000000, A.D. 2023-Apr-08 00:00:00.0000, -2.773102934502029E+08, -5.007302109546254E+07, -7.481443499407811E+07,
2460049.500000000, A.D. 2023-Apr-15 00:00:00.0000, -2.763587459174666E+08, -6.428763296772321E+07, -7.601492440307413E+07,
2460056.500000000, A.D. 2023-Apr-22 00:00:00.0000, -2.748780086436862E+08, -7.837926528721070E+07, -7.706985433371973E+07,
2460063.500000000, A.D. 2023-Apr-29 00:00:00.0000, -2.728830705584603E+08, -9.232439808518176E+07, -7.798061266305707E+07,
2460070.500000000, A.D. 2023-May-06 00:00:00.0000, -2.703898874196427E+08, -1.061010784763869E+08, -7.874898897594383E+07,
2460077.500000000, A.D. 2023-May-13 00:00:00.0000, -2.674152119482022E+08, -1.196889372369436E+08, -7.937713360045847E+07,
2460084.500000000, A.D. 2023-May-20 00:00:00.0000, -2.639764327311132E+08, -1.330691869444419E+08, -7.986751689686549E+07,
2460091.500000000, A.D. 2023-May-27 00:00:00.0000, -2.600914232703293E+08, -1.462246040134193E+08, -8.022288945130342E+07,
2460098.500000000, A.D. 2023-Jun-03 00:00:00.0000, -2.557784022327249E+08, -1.591394969322476E+08, -8.044624369166821E+07,
2460105.500000000, A.D. 2023-Jun-10 00:00:00.0000, -2.510558055707246E+08, -1.717996630038076E+08, -8.054077732976949E+07,
2460112.500000000, A.D. 2023-Jun-17 00:00:00.0000, -2.459421707504221E+08, -1.841923358396419E+08, -8.050985894024093E+07,
2460119.500000000, A.D. 2023-Jun-24 00:00:00.0000, -2.404560327835852E+08, -1.963061256011350E+08, -8.035699590954180E+07,
2460126.500000000, A.D. 2023-Jul-01 00:00:00.0000, -2.346158315779621E+08, -2.081309530363438E+08, -8.008580484443524E+07,
2460133.500000000, A.D. 2023-Jul-08 00:00:00.0000, -2.284398318533036E+08, -2.196579781709266E+08, -7.969998428760563E+07,
2460140.500000000, A.D. 2023-Jul-15 00:00:00.0000, -2.219460563253414E+08, -2.308795279572876E+08, -7.920328986446564E+07,
2460147.500000000, A.D. 2023-Jul-22 00:00:00.0000, -2.151522279555600E+08, -2.417890251865685E+08, -7.859951222871868E+07,
$$EOE